[{"OBJECT_NAME":"NIMIQ 2","OBJECT_ID":"2002-062A","EPOCH":"2026-03-04T11:43:38.558208","MEAN_MOTION":1.00272481,"ECCENTRICITY":0.0006544,"INCLINATION":9.2049,"RA_OF_ASC_NODE":57.9824,"ARG_OF_PERICENTER":289.1831,"MEAN_ANOMALY":241.783,"EPHEMERIS_TYPE":0,"CLASSIFICATION_TYPE":"U","NORAD_CAT_ID":27632,"ELEMENT_SET_NO":999,"REV_AT_EPOCH":4313,"BSTAR":0,"MEAN_MOTION_DOT":-7.6e-7,"MEAN_MOTION_DDOT":0},{"OBJECT_NAME":"ANIK F2","OBJECT_ID":"2004-027A","EPOCH":"2026-03-04T10:38:38.463936","MEAN_MOTION":1.00272423,"ECCENTRICITY":0.000304,"INCLINATION":3.0142,"RA_OF_ASC_NODE":80.8541,"ARG_OF_PERICENTER":297.2329,"MEAN_ANOMALY":192.6455,"EPHEMERIS_TYPE":0,"CLASSIFICATION_TYPE":"U","NORAD_CAT_ID":28378,"ELEMENT_SET_NO":999,"REV_AT_EPOCH":4021,"BSTAR":0,"MEAN_MOTION_DOT":-6.0e-7,"MEAN_MOTION_DDOT":0},{"OBJECT_NAME":"ANIK F1R","OBJECT_ID":"2005-036A","EPOCH":"2026-03-04T03:15:26.863776","MEAN_MOTION":1.00272119,"ECCENTRICITY":0.00028925,"INCLINATION":4.0443,"RA_OF_ASC_NODE":77.8955,"ARG_OF_PERICENTER":299.7446,"MEAN_ANOMALY":85.8143,"EPHEMERIS_TYPE":0,"CLASSIFICATION_TYPE":"U","NORAD_CAT_ID":28868,"ELEMENT_SET_NO":999,"REV_AT_EPOCH":4540,"BSTAR":0,"MEAN_MOTION_DOT":-8.6e-7,"MEAN_MOTION_DDOT":0},{"OBJECT_NAME":"ANIK F3","OBJECT_ID":"2007-009A","EPOCH":"2026-03-04T11:43:38.558208","MEAN_MOTION":1.00273513,"ECCENTRICITY":0.0002794,"INCLINATION":0.9271,"RA_OF_ASC_NODE":85.2098,"ARG_OF_PERICENTER":266.0795,"MEAN_ANOMALY":228.1527,"EPHEMERIS_TYPE":0,"CLASSIFICATION_TYPE":"U","NORAD_CAT_ID":31102,"ELEMENT_SET_NO":999,"REV_AT_EPOCH":4551,"BSTAR":0,"MEAN_MOTION_DOT":-1.2e-7,"MEAN_MOTION_DDOT":0},{"OBJECT_NAME":"NIMIQ 4","OBJECT_ID":"2008-044A","EPOCH":"2026-03-04T08:17:38.511168","MEAN_MOTION":1.00281974,"ECCENTRICITY":0.00025888,"INCLINATION":0.0237,"RA_OF_ASC_NODE":231.4219,"ARG_OF_PERICENTER":117.7331,"MEAN_ANOMALY":215.3391,"EPHEMERIS_TYPE":0,"CLASSIFICATION_TYPE":"U","NORAD_CAT_ID":33373,"ELEMENT_SET_NO":999,"REV_AT_EPOCH":6393,"BSTAR":0,"MEAN_MOTION_DOT":-2.33e-6,"MEAN_MOTION_DDOT":0},{"OBJECT_NAME":"TELSTAR 11N","OBJECT_ID":"2009-009A","EPOCH":"2026-03-04T08:06:38.530080","MEAN_MOTION":1.00271929,"ECCENTRICITY":0.00023413,"INCLINATION":0.0202,"RA_OF_ASC_NODE":137.5392,"ARG_OF_PERICENTER":194.5952,"MEAN_ANOMALY":274.0492,"EPHEMERIS_TYPE":0,"CLASSIFICATION_TYPE":"U","NORAD_CAT_ID":34111,"ELEMENT_SET_NO":999,"REV_AT_EPOCH":4519,"BSTAR":0,"MEAN_MOTION_DOT":-2.63e-6,"MEAN_MOTION_DDOT":0},{"OBJECT_NAME":"TERRESTAR-1","OBJECT_ID":"2009-035A","EPOCH":"2026-03-04T11:43:38.558208","MEAN_MOTION":1.00272115,"ECCENTRICITY":0.0002934,"INCLINATION":5.0953,"RA_OF_ASC_NODE":48.8345,"ARG_OF_PERICENTER":301.3248,"MEAN_ANOMALY":236.9811,"EPHEMERIS_TYPE":0,"CLASSIFICATION_TYPE":"U","NORAD_CAT_ID":35496,"ELEMENT_SET_NO":999,"REV_AT_EPOCH":6108,"BSTAR":0,"MEAN_MOTION_DOT":-6.5e-7,"MEAN_MOTION_DDOT":0},{"OBJECT_NAME":"NIMIQ 5","OBJECT_ID":"2009-050A","EPOCH":"2026-03-04T06:04:38.703072","MEAN_MOTION":1.00273376,"ECCENTRICITY":0.00026413,"INCLINATION":0.0535,"RA_OF_ASC_NODE":271.2017,"ARG_OF_PERICENTER":72.4525,"MEAN_ANOMALY":196.7895,"EPHEMERIS_TYPE":0,"CLASSIFICATION_TYPE":"U","NORAD_CAT_ID":35873,"ELEMENT_SET_NO":999,"REV_AT_EPOCH":6029,"BSTAR":0,"MEAN_MOTION_DOT":-2.69e-6,"MEAN_MOTION_DDOT":0},{"OBJECT_NAME":"SKYTERRA 1","OBJECT_ID":"2010-061A","EPOCH":"2026-03-04T01:34:29.043552","MEAN_MOTION":1.00271469,"ECCENTRICITY":0.00016038,"INCLINATION":4.9016,"RA_OF_ASC_NODE":50.914,"ARG_OF_PERICENTER":293.9262,"MEAN_ANOMALY":99.2594,"EPHEMERIS_TYPE":0,"CLASSIFICATION_TYPE":"U","NORAD_CAT_ID":37218,"ELEMENT_SET_NO":999,"REV_AT_EPOCH":5614,"BSTAR":0,"MEAN_MOTION_DOT":-1.28e-6,"MEAN_MOTION_DDOT":0},{"OBJECT_NAME":"TELSTAR 14R","OBJECT_ID":"2011-021A","EPOCH":"2026-03-04T01:45:27.989568","MEAN_MOTION":1.00272792,"ECCENTRICITY":0.00024274,"INCLINATION":0.0365,"RA_OF_ASC_NODE":269.7706,"ARG_OF_PERICENTER":79.4879,"MEAN_ANOMALY":135.9193,"EPHEMERIS_TYPE":0,"CLASSIFICATION_TYPE":"U","NORAD_CAT_ID":37602,"ELEMENT_SET_NO":999,"REV_AT_EPOCH":5478,"BSTAR":0,"MEAN_MOTION_DOT":-2.93e-6,"MEAN_MOTION_DDOT":0},{"OBJECT_NAME":"NIMIQ 6","OBJECT_ID":"2012-026A","EPOCH":"2026-03-04T07:20:38.672160","MEAN_MOTION":1.0027097,"ECCENTRICITY":0.00026237,"INCLINATION":0.0556,"RA_OF_ASC_NODE":279.8002,"ARG_OF_PERICENTER":59.4407,"MEAN_ANOMALY":201.8624,"EPHEMERIS_TYPE":0,"CLASSIFICATION_TYPE":"U","NORAD_CAT_ID":38342,"ELEMENT_SET_NO":999,"REV_AT_EPOCH":4936,"BSTAR":0,"MEAN_MOTION_DOT":-1.85e-6,"MEAN_MOTION_DDOT":0},{"OBJECT_NAME":"ANIK G1","OBJECT_ID":"2013-014A","EPOCH":"2026-03-04T08:33:38.625984","MEAN_MOTION":1.00271719,"ECCENTRICITY":0.00030353,"INCLINATION":0.0553,"RA_OF_ASC_NODE":270.7587,"ARG_OF_PERICENTER":51.5919,"MEAN_ANOMALY":220.8486,"EPHEMERIS_TYPE":0,"CLASSIFICATION_TYPE":"U","NORAD_CAT_ID":39127,"ELEMENT_SET_NO":999,"REV_AT_EPOCH":4720,"BSTAR":0,"MEAN_MOTION_DOT":-8.6e-7,"MEAN_MOTION_DDOT":0},{"OBJECT_NAME":"TELSTAR 12V","OBJECT_ID":"2015-068A","EPOCH":"2026-03-04T09:18:38.709792","MEAN_MOTION":1.00272414,"ECCENTRICITY":0.00024097,"INCLINATION":0.0203,"RA_OF_ASC_NODE":234.8927,"ARG_OF_PERICENTER":112.5826,"MEAN_ANOMALY":299.3135,"EPHEMERIS_TYPE":0,"CLASSIFICATION_TYPE":"U","NORAD_CAT_ID":41036,"ELEMENT_SET_NO":999,"REV_AT_EPOCH":3757,"BSTAR":0,"MEAN_MOTION_DOT":-1.31e-6,"MEAN_MOTION_DDOT":0},{"OBJECT_NAME":"VIASAT-2","OBJECT_ID":"2017-029A","EPOCH":"2026-03-04T08:09:38.820096","MEAN_MOTION":1.00273336,"ECCENTRICITY":5.501e-5,"INCLINATION":0.0258,"RA_OF_ASC_NODE":249.8701,"ARG_OF_PERICENTER":113.6701,"MEAN_ANOMALY":211.0567,"EPHEMERIS_TYPE":0,"CLASSIFICATION_TYPE":"U","NORAD_CAT_ID":42740,"ELEMENT_SET_NO":999,"REV_AT_EPOCH":3215,"BSTAR":0,"MEAN_MOTION_DOT":-2.77e-6,"MEAN_MOTION_DDOT":0},{"OBJECT_NAME":"LEO 1 (LEO VANTAGE 1)","OBJECT_ID":"2018-004C","EPOCH":"2026-03-04T07:39:04.000320","MEAN_MOTION":14.67122514,"ECCENTRICITY":0.03533522,"INCLINATION":99.2485,"RA_OF_ASC_NODE":327.9417,"ARG_OF_PERICENTER":41.3399,"MEAN_ANOMALY":321.3978,"EPHEMERIS_TYPE":0,"CLASSIFICATION_TYPE":"U","NORAD_CAT_ID":43113,"ELEMENT_SET_NO":999,"REV_AT_EPOCH":42210,"BSTAR":0.00044657638,"MEAN_MOTION_DOT":6.456e-5,"MEAN_MOTION_DDOT":0},{"OBJECT_NAME":"TELSTAR 19V","OBJECT_ID":"2018-059A","EPOCH":"2026-03-04T03:28:03.154944","MEAN_MOTION":1.0027202,"ECCENTRICITY":5.932e-5,"INCLINATION":0.0201,"RA_OF_ASC_NODE":169.6505,"ARG_OF_PERICENTER":253.965,"MEAN_ANOMALY":87.2796,"EPHEMERIS_TYPE":0,"CLASSIFICATION_TYPE":"U","NORAD_CAT_ID":43562,"ELEMENT_SET_NO":999,"REV_AT_EPOCH":2809,"BSTAR":0,"MEAN_MOTION_DOT":-2.92e-6,"MEAN_MOTION_DDOT":0},{"OBJECT_NAME":"TELSTAR 18V","OBJECT_ID":"2018-069A","EPOCH":"2026-03-04T16:43:38.679744","MEAN_MOTION":1.00271198,"ECCENTRICITY":0.0002083,"INCLINATION":0.0126,"RA_OF_ASC_NODE":217.7036,"ARG_OF_PERICENTER":127.2921,"MEAN_ANOMALY":206.3483,"EPHEMERIS_TYPE":0,"CLASSIFICATION_TYPE":"U","NORAD_CAT_ID":43611,"ELEMENT_SET_NO":999,"REV_AT_EPOCH":2758,"BSTAR":0,"MEAN_MOTION_DOT":-3.04e-6,"MEAN_MOTION_DDOT":0}]
